NORAD_CAT_ID,OBJECT_NAME,OBJECT_TYPE,EPOCH,MEAN_MOTION,ECCENTRICITY,INCLINATION,RA_OF_ASC_NODE,ARG_OF_PERICENTER,MEAN_ANOMALY,BSTAR,MEAN_MOTION_DOT,MEAN_MOTION_DDOT,TLE_LINE0,TLE_LINE1,TLE_LINE2,SEMIMAJOR_AXIS,PERIOD,APOGEE,PERIGEE,DECAYED
55275.0,STARLINK-5260,PAYLOAD,2023-08-17 10:26:19,14.98330777,0.0003933,69.9997,222.7007,267.4692,92.6017,1.5617e-05,9.3e-07,0.0,0 STARLINK-5260,1 55275U 23010G   23229.43494641  .00000093  00000-0  15617-4 0  9999,2 55275  69.9997 222.7007 0003933 267.4692  92.6017 14.98330777 32862,6950.19,96.107,574.789,569.322,0.0
55275.0,STARLINK-5260,PAYLOAD,2023-08-18 16:52:52,14.98329568,0.0003938,69.9996,219.5026,267.9938,92.077,-1.0726e-05,-2.21e-06,0.0,0 STARLINK-5260,1 55275U 23010G   23230.70338797 -.00000221  00000-0 -10726-4 0  9991,2 55275  69.9996 219.5026 0003938 267.9938  92.0770 14.98329568 33057,6950.194,96.107,574.796,569.322,0.0
55275.0,STARLINK-5260,PAYLOAD,2023-08-20 04:07:50,14.98329668,0.0003928,69.9997,215.7998,267.7077,92.3633,2.0387e-05,1.5e-06,0.0,0 STARLINK-5260,1 55275U 23010G   23232.17210666  .00000150  00000-0  20387-4 0  9991,2 55275  69.9997 215.7998 0003928 267.7077  92.3633 14.98329668 33271,6950.194,96.107,574.789,569.329,0.0
55275.0,STARLINK-5260,PAYLOAD,2023-08-21 04:09:51,14.98320207,0.0003911,70.0001,213.2767,266.9232,93.148,0.00018159,2.074e-05,0.0,0 STARLINK-5260,1 55275U 23010G   23233.17350854  .00002074  00000-0  18159-3 0  9996,2 55275  70.0001 213.2767 0003911 266.9232  93.1480 14.98320207 33429,6950.223,96.108,574.806,569.37,0.0
55275.0,STARLINK-5260,PAYLOAD,2023-08-21 08:58:15,14.98330885,0.0003821,70.0001,212.7713,266.8674,93.2048,8.3414e-06,6e-08,0.0,0 STARLINK-5260,1 55275U 23010G   23233.37378551  .00000006  00000-0  83414-5 0  9993,2 55275  70.0001 212.7713 0003821 266.8674  93.2048 14.98330885 33450,6950.19,96.107,574.711,569.399,0.0
55275.0,STARLINK-5260,PAYLOAD,2023-08-22 09:00:15,14.98331471,0.0003677,70.0003,210.2468,262.4838,97.5903,2.0802e-06,-6.8e-07,0.0,0 STARLINK-5260,1 55275U 23010G   23234.37518443 -.00000068  00000-0  20802-5 0  9991,2 55275  70.0003 210.2468 0003677 262.4838  97.5903 14.98331471 33601,6950.188,96.107,574.609,569.498,0.0
55275.0,STARLINK-5260,PAYLOAD,2023-08-23 09:02:16,14.98330853,0.0003622,70.0006,207.7218,263.9521,96.1225,5.6008e-07,-8.6e-07,0.0,0 STARLINK-5260,1 55275U 23010G   23235.37658471 -.00000086  00000-0  56008-6 0  9996,2 55275  70.0006 207.7218 0003622 263.9521  96.1225 14.98330853 33754,6950.19,96.107,574.573,569.538,0.0
55275.0,STARLINK-5260,PAYLOAD,2023-08-24 21:53:22,14.98329665,0.0003526,70.0008,203.85,262.545,97.5308,1.8876e-05,1.32e-06,0.0,0 STARLINK-5260,1 55275U 23010G   23236.91206542  .00000132  00000-0  18876-4 0  9995,2 55275  70.0008 203.8500 0003526 262.5450  97.5308 14.98329665 34304,6950.194,96.107,574.51,569.608,0.0
55275.0,STARLINK-5260,PAYLOAD,2023-08-25 02:41:46,14.98330134,0.0003519,70.0009,203.3451,263.2327,96.8431,2.3153e-05,1.83e-06,0.0,0 STARLINK-5260,1 55275U 23010G   23237.11234505  .00000183  00000-0  23153-4 0  9998,2 55275  70.0009 203.3451 0003519 263.2327  96.8431 14.98330134 34018,6950.192,96.107,574.503,569.612,0.0
55275.0,STARLINK-5260,PAYLOAD,2023-08-25 09:06:18,14.98331455,0.0003504,70.001,202.672,263.1069,96.9692,3.6451e-05,3.42e-06,0.0,0 STARLINK-5260,1 55275U 23010G   23237.37938359  .00000342  00000-0  36451-4 0  9996,2 55275  70.0010 202.6720 0003504 263.1069  96.9692 14.98331455 34373,6950.188,96.107,574.489,569.618,0.0
55275.0,STARLINK-5260,PAYLOAD,2023-08-25 20:19:15,14.9833061,0.0003495,70.0011,201.4942,263.4961,96.58,2.5678e-05,2.13e-06,0.0,0 STARLINK-5260,1 55275U 23010G   23237.84670403  .00000213  00000-0  25678-4 0  9997,2 55275  70.0011 201.4942 0003495 263.4961  96.5800 14.98330610 34447,6950.191,96.107,574.485,569.627,0.0
55275.0,STARLINK-5260,PAYLOAD,2023-08-26 09:08:19,14.98332348,0.000353,70.0009,200.1471,266.8036,93.2719,4.9373e-05,4.96e-06,0.0,0 STARLINK-5260,1 55275U 23010G   23238.38078203  .00000496  00000-0  49373-4 0  9998,2 55275  70.0009 200.1471 0003530 266.8036  93.2719 14.98332348 34204,6950.186,96.107,574.504,569.597,0.0
55275.0,STARLINK-5260,PAYLOAD,2023-08-27 04:21:56,14.98326443,0.0003064,70.0013,198.1272,265.7037,94.3772,4.0078e-05,3.85e-06,0.0,0 STARLINK-5260,1 55275U 23010G   23239.18190618  .00000385  00000-0  40078-4 0  9992,2 55275  70.0013 198.1272 0003064 265.7037  94.3772 14.98326443 34328,6950.204,96.107,574.198,569.939,0.0
55275.0,STARLINK-5260,PAYLOAD,2023-08-27 20:23:17,14.98330498,0.0003326,70.0013,196.4441,270.898,89.1798,-2.2518e-05,-3.62e-06,0.0,0 STARLINK-5260,1 55275U 23010G   23239.84950466 -.00000362  00000-0 -22518-4 0  9996,2 55275  70.0013 196.4441 0003326 270.8980  89.1798 14.98330498 34743,6950.191,96.107,574.368,569.745,0.0
55275.0,STARLINK-5260,PAYLOAD,2023-08-28 07:36:13,14.98332591,0.0003306,70.0014,195.2661,270.7103,89.3677,2.8518e-05,2.47e-06,0.0,0 STARLINK-5260,1 55275U 23010G   23240.31682146  .00000247  00000-0  28518-4 0  9993,2 55275  70.0014 195.2661 0003306 270.7103  89.3677 14.98332591 34495,6950.185,96.107,574.348,569.752,0.0
55275.0,STARLINK-5260,PAYLOAD,2023-08-28 14:00:45,14.98332595,0.0003295,70.0015,194.5928,272.02,88.0582,-4.3524e-05,-6.12e-06,0.0,0 STARLINK-5260,1 55275U 23010G   23240.58386307 -.00000612  00000-0 -43524-4 0  9994,2 55275  70.0015 194.5928 0003295 272.0200  88.0582 14.98332595 34859,6950.185,96.107,574.34,569.76,0.0
55275.0,STARLINK-5260,PAYLOAD,2023-08-29 06:02:06,14.9832887,0.0003177,70.0015,192.9103,266.9823,93.0972,2.8153e-06,-5.9e-07,0.0,0 STARLINK-5260,1 55275U 23010G   23241.25146430 -.00000059  00000-0  28153-5 0  9996,2 55275  70.0015 192.9103 0003177 266.9823  93.0972 14.98328870 34634,6950.196,96.107,574.269,569.853,0.0
55275.0,STARLINK-5260,PAYLOAD,2023-08-29 14:02:47,14.9831628,0.00032,70.0014,192.0683,268.9904,91.0888,0.00017053,1.942e-05,0.0,0 STARLINK-5260,1 55275U 23010G   23241.58526906  .00001942  00000-0  17053-3 0  9998,2 55275  70.0014 192.0683 0003200 268.9904  91.0888 14.98316280 35004,6950.235,96.108,574.324,569.876,0.0
55275.0,STARLINK-5260,PAYLOAD,2023-08-30 06:04:07,14.9832665,0.0003172,70.0013,190.3851,268.2236,91.856,-3.4135e-05,-5e-06,0.0,0 STARLINK-5260,1 55275U 23010G   23242.25286806 -.00000500  00000-0 -34135-4 0  9997,2 55275  70.0013 190.3851 0003172 268.2236  91.8560 14.98326650 34781,6950.203,96.107,574.273,569.864,0.0
55275.0,STARLINK-5260,PAYLOAD,2023-08-30 14:04:47,14.98330715,0.0003517,70.0012,189.5441,267.4863,92.5893,-3.5133e-05,-5.12e-06,0.0,0 STARLINK-5260,1 55275U 23010G   23242.58666452 -.00000512  00000-0 -35133-4 0  9994,2 55275  70.0012 189.5441 0003517 267.4863  92.5893 14.98330715 35151,6950.191,96.107,574.5,569.611,0.0
55275.0,STARLINK-5260,PAYLOAD,2023-08-31 06:06:08,14.983327,0.000321,70.001,187.86,267.9078,92.1713,5.2476e-05,5.33e-06,0.0,0 STARLINK-5260,1 55275U 23010G   23243.25426214  .00000533  00000-0  52476-4 0  9999,2 55275  70.0010 187.8600 0003210 267.9078  92.1713 14.98332700 34938,6950.185,96.107,574.281,569.819,0.0
55275.0,STARLINK-5260,PAYLOAD,2023-09-01 02:55:53,14.98295581,0.0004144,70.0015,185.676,271.8108,88.2576,0.00049691,5.836e-05,0.0,0 STARLINK-5260,1 55275U 23010G   23244.12214981  .00005836  00000-0  49691-3 0  9997,2 55275  70.0015 185.6760 0004144 271.8108  88.2576 14.98295581 35064,6950.299,96.109,575.045,569.284,0.0
55275.0,STARLINK-5260,PAYLOAD,2023-09-01 06:08:09,14.98323567,0.0003266,70.0009,185.3363,270.7131,89.3653,0.00017073,1.944e-05,0.0,0 STARLINK-5260,1 55275U 23010G   23244.25566398  .00001944  00000-0  17073-3 0  9998,2 55275  70.0009 185.3363 0003266 270.7131  89.3653 14.98323567 35087,6950.213,96.107,574.348,569.808,0.0
55275.0,STARLINK-5260,PAYLOAD,2023-09-02 02:57:53,14.98336433,0.0003172,70.0008,183.1484,268.3654,91.7142,1.047e-05,3.2e-07,0.0,0 STARLINK-5260,1 55275U 23010G   23245.12353862  .00000032  00000-0  10470-4 0  9997,2 55275  70.0008 183.1484 0003172 268.3654  91.7142 14.98336433 35216,6950.173,96.107,574.243,569.833,0.0
55275.0,STARLINK-5260,PAYLOAD,2023-09-02 18:59:14,14.98333062,0.0003056,69.9982,181.4665,264.0567,96.0244,-2.4446e-05,-3.85e-06,0.0,0 STARLINK-5260,1 55275U 23010G   23245.79114036 -.00000385  00000-0 -24446-4 0  9999,2 55275  69.9982 181.4665 0003056 264.0567  96.0244 14.98333062 35635,6950.183,96.107,574.172,569.924,0.0
55275.0,STARLINK-5260,PAYLOAD,2023-09-02 23:47:38,14.9833176,0.0003215,70.0008,180.9608,267.8799,92.1992,-5.7637e-05,-7.81e-06,0.0,0 STARLINK-5260,1 55275U 23010G   23245.99142219 -.00000781  00000-0 -57637-4 0  9993,2 55275  70.0008 180.9608 0003215 267.8799  92.1992 14.98331760 35341,6950.187,96.107,574.287,569.818,0.0
55275.0,STARLINK-5260,PAYLOAD,2023-09-03 06:12:10,14.98338409,0.0003211,70.0012,180.2877,268.1809,91.8983,1.5253e-05,8.9e-07,0.0,0 STARLINK-5260,1 55275U 23010G   23246.25845500  .00000089  00000-0  15253-4 0  9993,2 55275  70.0012 180.2877 0003211 268.1809  91.8983 14.98338409 35386,6950.167,96.106,574.264,569.8,0.0
55275.0,STARLINK-5260,PAYLOAD,2023-09-03 12:36:43,14.98329777,0.0002777,70.0031,179.6152,267.704,92.3801,-8.8514e-05,-1.149e-05,0.0,0 STARLINK-5260,1 55275U 23010G   23246.52550350 -.00001149  00000-0 -88514-4 0  9999,2 55275  70.0031 179.6152 0002777 267.7040  92.3801 14.98329777 35746,6950.194,96.107,573.989,570.129,0.0
55275.0,STARLINK-5260,PAYLOAD,2023-09-04 01:25:48,14.98279289,0.0002983,70.0026,178.2686,261.9399,98.1422,0.00062627,7.378e-05,0.0,0 STARLINK-5260,1 55275U 23010G   23247.05959188  .00007378  00000-0  62627-3 0  9994,2 55275  70.0026 178.2686 0002983 261.9399  98.1422 14.98279289 35508,6950.35,96.11,574.288,570.141,0.0
55275.0,STARLINK-5260,PAYLOAD,2023-09-04 04:38:04,14.98323356,0.0002964,70.0024,177.9316,268.726,91.3559,-6.2664e-05,-8.4e-06,0.0,0 STARLINK-5260,1 55275U 23010G   23247.19310811 -.00000840  00000-0 -62664-4 0  9994,2 55275  70.0024 177.9316 0002964 268.7260  91.3559 14.98323356 35526,6950.213,96.107,574.138,570.018,0.0
